[{"OBJECT_NAME":"STARLINK-36156","OBJECT_ID":"2025-293D","EPOCH":"2026-03-09T11:40:19.435584","MEAN_MOTION":14.9835049,"ECCENTRICITY":0.00040142,"INCLINATION":70,"RA_OF_ASC_NODE":95.1201,"ARG_OF_PERICENTER":266.14,"MEAN_ANOMALY":93.93,"EPHEMERIS_TYPE":0,"CLASSIFICATION_TYPE":"U","NORAD_CAT_ID":67006,"ELEMENT_SET_NO":999,"REV_AT_EPOCH":1485,"BSTAR":0.00030061031,"MEAN_MOTION_DOT":3.498e-5,"MEAN_MOTION_DDOT":0},{"OBJECT_NAME":"COSMOS 2251 DEB","OBJECT_ID":"1993-036ADE","EPOCH":"2026-03-09T12:45:39.617856","MEAN_MOTION":14.78545213,"ECCENTRICITY":0.00825902,"INCLINATION":74.0115,"RA_OF_ASC_NODE":265.8425,"ARG_OF_PERICENTER":18.0299,"MEAN_ANOMALY":342.3774,"EPHEMERIS_TYPE":0,"CLASSIFICATION_TYPE":"U","NORAD_CAT_ID":34909,"ELEMENT_SET_NO":999,"REV_AT_EPOCH":68134,"BSTAR":0.0004517949,"MEAN_MOTION_DOT":3.461e-5,"MEAN_MOTION_DDOT":0}]
